OBJECT_NAME,OBJECT_ID,EPOCH,MEAN_MOTION,ECCENTRICITY,INCLINATION,RA_OF_ASC_NODE,ARG_OF_PERICENTER,MEAN_ANOMALY,EPHEMERIS_TYPE,CLASSIFICATION_TYPE,NORAD_CAT_ID,ELEMENT_SET_NO,REV_AT_EPOCH,BSTAR,MEAN_MOTION_DOT,MEAN_MOTION_DDOT
LEMUR-2-ROUNDTRIPPER,2025-009DG,2026-06-30T11:13:08.464512,15.03999738,.00051073,97.7239,264.1287,99.5828,260.5975,0,U,62711,999,7962,.5901352E-3,.8098E-4,0
LEMUR-2-MYNAMEISJEFF,2025-009DH,2026-06-30T11:10:50.874240,15.03993051,.00037707,97.7283,264.5161,128.7359,231.4204,0,U,62712,999,7962,.55664797E-3,.7632E-4,0
LEMUR-2-LEIA-PHILIP,2025-052AN,2026-06-30T05:37:52.580640,14.97347294,.00041335,97.6815,72.9650,164.3755,195.7595,0,U,63246,999,7062,.14071117E-3,.1576E-4,0
LEMUR-2-LIA-MARTIN,2025-052AQ,2026-06-30T12:03:27.820512,14.97903989,.00043826,97.6868,73.7227,128.9274,231.2339,0,U,63248,999,7067,.39411595E-3,.4585E-4,0
LEMUR-2-DELOITTE-1,2025-052BB,2026-06-30T06:43:22.832832,14.97690005,.00027159,97.6909,73.8355,70.4952,289.6563,0,U,63259,999,7065,.24961174E-3,.2866E-4,0
LEMUR-2-EMERSONROSE,2025-052BD,2026-06-30T05:49:07.239360,14.99172394,.00023457,97.6873,74.3798,78.3071,281.8415,0,U,63261,999,7069,.33802068E-3,.4056E-4,0
LEMUR-2-MARACHE-FRAN,2025-052BE,2026-06-30T06:36:41.282784,15.00210472,.0004397,97.6906,74.7579,326.0371,34.0571,0,U,63262,999,7072,.31335519E-3,.386E-4,0
LEMUR-2-THEFALCONER,2025-052BG,2026-06-30T05:47:57.469632,14.97467969,.00012823,97.6844,73.4024,21.6514,338.4763,0,U,63264,999,7064,.3141545E-3,.3601E-4,0
LEMUR-2-UNTITLED-SC,2025-061A,2026-06-30T13:49:08.609376,15.13561193,.00176535,97.5641,156.8406,214.2040,145.8056,0,U,63351,999,6961,.17485947E-3,.3079E-4,0
LEMUR-2-ESPERANZA,2025-061B,2026-06-30T11:39:51.607008,15.13652327,.00173021,97.5646,156.8480,213.8655,146.1472,0,U,63352,999,6960,.21721346E-3,.3851E-4,0
LEMUR-2-KREMPEL-BRO2,2025-061C,2026-06-30T13:48:20.262528,15.14091810,.0018398,97.5695,157.4871,205.6596,154.3725,0,U,63353,999,6963,.17875971E-3,.3198E-4,0
LEMUR-2-THERMORAPTOR,2025-061D,2026-06-30T10:11:10.261248,15.14173221,.00181499,97.5697,157.4152,205.2271,154.8076,0,U,63354,999,6961,.2232507E-3,.4021E-4,0
LEMUR-2-NEUROSPICY,2025-061E,2026-06-30T11:04:04.582560,15.14290289,.00159432,97.5628,157.0677,207.9538,152.0839,0,U,63355,999,6962,.19376856E-3,.3489E-4,0
LEMUR-2-TILLINFINITY,2025-061F,2026-06-30T03:51:53.844768,15.14871146,.00174485,97.5610,157.0692,197.1084,162.9562,0,U,63356,999,6960,.19538481E-3,.358E-4,0
LEMUR-2-KREMPEL-BRO1,2025-061G,2026-06-30T11:11:44.479392,15.14680879,.00181087,97.5613,157.2852,197.4263,162.6349,0,U,63357,999,6964,.19920822E-3,.3632E-4,0
LEMUR-2-LANGER2SPACE,2025-061H,2026-06-30T08:43:25.983552,15.14374553,.00158295,97.5616,156.9916,206.5556,153.4866,0,U,63358,999,6961,.19714602E-3,.356E-4,0
LEMUR-2-BALTO,2025-052BH,2026-06-30T06:14:39.433632,15.00226207,.00063197,97.6927,74.7183,22.2214,337.9282,0,U,63395,999,7072,.42165632E-3,.5218E-4,0
LEMUR-2-KRISH,2025-135AK,2026-06-30T07:34:23.435328,14.96319063,.0001212,97.7753,296.1017,107.3321,252.8033,0,U,64561,999,5588,.42207826E-3,.4716E-4,0
LEMUR-2-HUBBLE-4,2025-135AP,2026-06-30T06:27:43.833312,14.93647479,.0001395,97.7710,295.0197,209.3685,150.7457,0,U,64565,999,5582,.18759986E-3,.1925E-4,0
LEMUR-2-SEJONG-2,2025-135BL,2026-06-30T14:36:30.643200,14.96808408,.00026778,97.7713,296.5380,284.2861,75.8063,0,U,64586,999,5595,.44411679E-3,.5028E-4,0
LEMUR-2-HUBBLE-5,2025-135BT,2026-06-30T13:13:46.365312,14.94176287,.00041481,97.7730,295.9519,301.4991,58.5824,0,U,64840,999,5590,.14501505E-3,.1496E-4,0
LEMUR-2-KARENDARRELL,2025-135BU,2026-06-30T06:11:28.990752,15.00300597,.00108946,97.7694,297.4447,153.6981,206.4798,0,U,64841,999,5597,.60656278E-3,.7555E-4,0
LEMUR-2-LUCILLE-ROSE,2025-135BV,2026-06-30T07:09:16.659072,15.00312520,.00128708,97.7744,297.5162,236.0357,123.9644,0,U,65403,999,5060,.5039056E-3,.6269E-4,0
LEMUR-2-AFFIE-WAUWIE,2025-248C,2026-06-30T14:15:38.594016,15.27709681,.00080861,45.3938,42.3246,173.2583,186.8416,0,U,66295,999,3664,.87629954E-3,.23965E-3,0
LEMUR-2-DEANANDMAEVE,2025-276N,2026-06-29T22:56:33.671328,15.19885958,.00045624,97.4214,254.2202,325.4620,34.6318,0,U,66678,999,3235,.342895E-3,.7297E-4,0
LEMUR-2-STAS-GORBUK,2025-276W,2026-06-30T04:06:18.641376,15.19512303,.00038085,97.4247,254.4856,324.5395,35.5586,0,U,66686,999,3238,.24261949E-3,.5085E-4,0
LEMUR-2-TEODOR,2025-276DG,2026-06-30T04:57:10.154592,15.21188039,.00023657,97.4153,254.7732,103.6748,256.4751,0,U,66768,999,3242,.25233152E-3,.5558E-4,0
LEMUR-2-LAILA,2025-276DQ,2026-06-30T10:35:42.495648,15.21414286,.00027843,97.4174,255.1338,116.7070,243.4451,0,U,66776,999,3246,.25235815E-3,.5596E-4,0
LEMUR-2-CELIJO-SB-PK,2025-276DW,2026-06-30T10:40:06.498624,15.00130483,.00079049,97.5222,251.7859,100.5271,259.6844,0,U,66781,999,2461,.48398117E-3,.5987E-4,0
