LEMUR-2-ROUNDTRIPPER    
1 62711U 25009DG  26181.46745908  .00008098  00000+0  59014-3 0  9990
2 62711  97.7239 264.1287 0005107  99.5828 260.5975 15.03999738 79622
LEMUR-2-MYNAMEISJEFF    
1 62712U 25009DH  26181.46586660  .00007632  00000+0  55665-3 0  9990
2 62712  97.7283 264.5161 0003770 128.7359 231.4204 15.03993051 79629
LEMUR-2-LEIA-PHILIP     
1 63246U 25052AN  26181.23463635  .00001576  00000+0  14071-3 0  9999
2 63246  97.6815  72.9650 0004133 164.3755 195.7595 14.97347294 70626
LEMUR-2-LIA-MARTIN      
1 63248U 25052AQ  26181.50240533  .00004585  00000+0  39412-3 0  9990
2 63248  97.6868  73.7227 0004382 128.9274 231.2339 14.97903989 70679
LEMUR-2-DELOITTE-1      
1 63259U 25052BB  26181.28012538  .00002866  00000+0  24961-3 0  9992
2 63259  97.6909  73.8355 0002715  70.4952 289.6563 14.97690005 70658
LEMUR-2-EMERSONROSE     
1 63261U 25052BD  26181.24244490  .00004056  00000+0  33802-3 0  9992
2 63261  97.6873  74.3798 0002345  78.3071 281.8415 14.99172394 70698
LEMUR-2-MARACHE-FRAN    
1 63262U 25052BE  26181.27547781  .00003860  00000+0  31336-3 0  9997
2 63262  97.6906  74.7579 0004397 326.0371  34.0571 15.00210472 70720
LEMUR-2-THEFALCONER     
1 63264U 25052BG  26181.24163738  .00003601  00000+0  31415-3 0  9993
2 63264  97.6844  73.4024 0001282  21.6514 338.4763 14.97467969 70646
LEMUR-2-UNTITLED-SC     
1 63351U 25061A   26181.57579409  .00003079  00000+0  17486-3 0  9993
2 63351  97.5641 156.8406 0017653 214.2040 145.8056 15.13561193 69613
LEMUR-2-ESPERANZA       
1 63352U 25061B   26181.48601397  .00003851  00000+0  21721-3 0  9991
2 63352  97.5646 156.8480 0017302 213.8655 146.1472 15.13652327 69604
LEMUR-2-KREMPEL-BRO2    
1 63353U 25061C   26181.57523452  .00003198  00000+0  17876-3 0  9997
2 63353  97.5695 157.4871 0018398 205.6596 154.3725 15.14091810 69639
LEMUR-2-THERMORAPTOR    
1 63354U 25061D   26181.42442432  .00004021  00000+0  22325-3 0  9991
2 63354  97.5697 157.4152 0018149 205.2271 154.8076 15.14173221 69613
LEMUR-2-NEUROSPICY      
1 63355U 25061E   26181.46116415  .00003489  00000+0  19377-3 0  9995
2 63355  97.5628 157.0677 0015943 207.9538 152.0839 15.14290289 69622
LEMUR-2-TILLINFINITY    
1 63356U 25061F   26181.16103987  .00003580  00000+0  19538-3 0  9994
2 63356  97.5610 157.0692 0017448 197.1084 162.9562 15.14871146 69607
LEMUR-2-KREMPEL-BRO1    
1 63357U 25061G   26181.46648703  .00003632  00000+0  19921-3 0  9992
2 63357  97.5613 157.2852 0018108 197.4263 162.6349 15.14680879 69642
LEMUR-2-LANGER2SPACE    
1 63358U 25061H   26181.36349518  .00003560  00000+0  19715-3 0  9995
2 63358  97.5616 156.9916 0015829 206.5556 153.4866 15.14374553 69615
LEMUR-2-BALTO           
1 63395U 25052BH  26181.26017863  .00005218  00000+0  42166-3 0  9998
2 63395  97.6927  74.7183 0006319  22.2214 337.9282 15.00226207 70725
LEMUR-2-KRISH           
1 64561U 25135AK  26181.31554902  .00004716  00000+0  42208-3 0  9991
2 64561  97.7753 296.1017 0001212 107.3321 252.8033 14.96319063 55882
LEMUR-2-HUBBLE-4        
1 64565U 25135AP  26181.26925733  .00001925  00000+0  18760-3 0  9998
2 64565  97.7710 295.0197 0001395 209.3685 150.7457 14.93647479 55826
LEMUR-2-SEJONG-2        
1 64586U 25135BL  26181.60868800  .00005028  00000+0  44412-3 0  9991
2 64586  97.7713 296.5380 0002677 284.2861  75.8063 14.96808408 55952
LEMUR-2-HUBBLE-5        
1 64840U 25135BT  26181.55123108  .00001496  00000+0  14502-3 0  9995
2 64840  97.7730 295.9519 0004148 301.4991  58.5824 14.94176287 55901
LEMUR-2-KARENDARRELL    
1 64841U 25135BU  26181.25797443  .00007555  00000+0  60656-3 0  9995
2 64841  97.7694 297.4447 0010894 153.6981 206.4798 15.00300597 55971
LEMUR-2-LUCILLE-ROSE    
1 65403U 25135BV  26181.29810948  .00006269  00000+0  50391-3 0  9996
2 65403  97.7744 297.5162 0012870 236.0357 123.9644 15.00312520 50603
LEMUR-2-AFFIE-WAUWIE    
1 66295U 25248C   26181.59419669  .00023965  00000+0  87630-3 0  9997
2 66295  45.3938  42.3246 0008086 173.2583 186.8416 15.27709681 36643
LEMUR-2-DEANANDMAEVE    
1 66678U 25276N   26180.95594527  .00007297  00000+0  34290-3 0  9993
2 66678  97.4214 254.2202 0004562 325.4620  34.6318 15.19885958 32355
LEMUR-2-STAS-GORBUK     
1 66686U 25276W   26181.17104909  .00005085  00000+0  24262-3 0  9999
2 66686  97.4247 254.4856 0003808 324.5395  35.5586 15.19512303 32389
LEMUR-2-TEODOR          
1 66768U 25276DG  26181.20636753  .00005558  00000+0  25233-3 0  9995
2 66768  97.4153 254.7732 0002365 103.6748 256.4751 15.21188039 32428
LEMUR-2-LAILA           
1 66776U 25276DQ  26181.44146407  .00005596  00000+0  25236-3 0  9997
2 66776  97.4174 255.1338 0002784 116.7070 243.4451 15.21414286 32468
LEMUR-2-CELIJO-SB-PK    
1 66781U 25276DW  26181.44451966  .00005987  00000+0  48398-3 0  9990
2 66781  97.5222 251.7859 0007904 100.5271 259.6844 15.00130483 24616
